[{"OBJECT_NAME":"TOMORROW-R2","OBJECT_ID":"2023-084AG","EPOCH":"2026-03-09T21:19:23.098656","MEAN_MOTION":15.71879583,"ECCENTRICITY":0.00051142,"INCLINATION":97.5895,"RA_OF_ASC_NODE":222.1734,"ARG_OF_PERICENTER":248.1295,"MEAN_ANOMALY":111.9424,"EPHEMERIS_TYPE":0,"CLASSIFICATION_TYPE":"U","NORAD_CAT_ID":56962,"ELEMENT_SET_NO":999,"REV_AT_EPOCH":15332,"BSTAR":0.00081619373,"MEAN_MOTION_DOT":0.00107013,"MEAN_MOTION_DDOT":0},{"OBJECT_NAME":"STARLINK-11344 [DTC]","OBJECT_ID":"2024-195B","EPOCH":"2026-03-09T21:45:12.976416","MEAN_MOTION":15.69702277,"ECCENTRICITY":0.00014029,"INCLINATION":53.1617,"RA_OF_ASC_NODE":25.4885,"ARG_OF_PERICENTER":50.2119,"MEAN_ANOMALY":309.9022,"EPHEMERIS_TYPE":0,"CLASSIFICATION_TYPE":"U","NORAD_CAT_ID":61688,"ELEMENT_SET_NO":999,"REV_AT_EPOCH":7906,"BSTAR":-3.020444e-6,"MEAN_MOTION_DOT":-9.55e-6,"MEAN_MOTION_DDOT":0}]
